$$SOE
2461295.500000000, A.D. 2026-Sep-12 00:00:00.0000, -3.293024718670859E+08, 3.777221487095072E+08, -6.343132794925356E+07,
2461302.500000000, A.D. 2026-Sep-19 00:00:00.0000, -3.366011258687664E+08, 3.715525365245314E+08, -6.292182370549348E+07,
2461309.500000000, A.D. 2026-Sep-26 00:00:00.0000, -3.437733864031684E+08, 3.652434578316209E+08, -6.238852100582205E+07,
2461316.500000000, A.D. 2026-Oct-03 00:00:00.0000, -3.508166769677736E+08, 3.587974181391218E+08, -6.183164436653475E+07,
2461323.500000000, A.D. 2026-Oct-10 00:00:00.0000, -3.577284672067583E+08, 3.522169622191844E+08, -6.125142574473658E+07,
2461330.500000000, A.D. 2026-Oct-17 00:00:00.0000, -3.645062733595760E+08, 3.455046734409803E+08, -6.064810444416223E+07,
2461337.500000000, A.D. 2026-Oct-24 00:00:00.0000, -3.711476587135857E+08, 3.386631730156274E+08, -6.002192702827246E+07,
2461344.500000000, A.D. 2026-Oct-31 00:00:00.0000, -3.776502339622927E+08, 3.316951190859754E+08, -5.937314725509541E+07,
2461351.500000000, A.D. 2026-Nov-07 00:00:00.0000, -3.840116571304682E+08, 3.246032057350322E+08, -5.870202605876103E+07,
2461358.500000000, A.D. 2026-Nov-14 00:00:00.0000, -3.902296328657655E+08, 3.173901627999741E+08, -5.800883152351741E+07,
2461365.500000000, A.D. 2026-Nov-21 00:00:00.0000, -3.963019129097595E+08, 3.100587571734494E+08, -5.729383862840910E+07,
2461372.500000000, A.D. 2026-Nov-28 00:00:00.0000, -4.022262987475372E+08, 3.026117925849189E+08, -5.655732891710891E+07,
2461379.500000000, A.D. 2026-Dec-05 00:00:00.0000, -4.080006428155176E+08, 2.950521072056302E+08, -5.579959047809902E+07,
2461386.500000000, A.D. 2026-Dec-12 00:00:00.0000, -4.136228481025626E+08, 2.873825721866506E+08, -5.502091799556140E+07,
2461393.500000000, A.D. 2026-Dec-19 00:00:00.0000, -4.190908680332879E+08, 2.796060911361967E+08, -5.422161269752046E+07,
2461400.500000000, A.D. 2026-Dec-26 00:00:00.0000, -4.244027067767240E+08, 2.717255996689539E+08, -5.340198225925804E+07,
2461407.500000000, A.D. 2027-Jan-02 00:00:00.0000, -4.295564197043272E+08, 2.637440648364925E+08, -5.256234070268390E+07,
2461414.500000000, A.D. 2027-Jan-09 00:00:00.0000, -4.345501138802725E+08, 2.556644844581588E+08, -5.170300830035768E+07,
2461421.500000000, A.D. 2027-Jan-16 00:00:00.0000, -4.393819485491882E+08, 2.474898863598576E+08, -5.082431148629913E+07,
2461428.500000000, A.D. 2027-Jan-23 00:00:00.0000, -4.440501355768095E+08, 2.392233274794247E+08, -4.992658278081634E+07,
2461435.500000000, A.D. 2027-Jan-30 00:00:00.0000, -4.485529396582456E+08, 2.308678927893780E+08, -4.901016075052435E+07,
2461442.500000000, A.D. 2027-Feb-06 00:00:00.0000, -4.528886778719904E+08, 2.224266943762619E+08, -4.807539001500817E+07,
2461449.500000000, A.D. 2027-Feb-13 00:00:00.0000, -4.570557190427821E+08, 2.139028718959295E+08, -4.712262115863822E+07,
2461456.500000000, A.D. 2027-Feb-20 00:00:00.0000, -4.610524852799637E+08, 2.052995936139907E+08, -4.615221039592087E+07,
2461463.500000000, A.D. 2027-Feb-27 00:00:00.0000, -4.648774542969832E+08, 1.966200548187671E+08, -4.516451938144067E+07,
2461470.500000000, A.D. 2027-Mar-06 00:00:00.0000, -4.685291594928241E+08, 1.878674755291601E+08, -4.415991528379840E+07,
2461477.500000000, A.D. 2027-Mar-13 00:00:00.0000, -4.720061893949149E+08, 1.790450995448742E+08, -4.313877080901010E+07,
2461484.500000000, A.D. 2027-Mar-20 00:00:00.0000, -4.753071875940729E+08, 1.701561940029728E+08, -4.210146413824479E+07,
2461491.500000000, A.D. 2027-Mar-27 00:00:00.0000, -4.784308529704751E+08, 1.612040488913540E+08, -4.104837884354545E+07,
2461498.500000000, A.D. 2027-Apr-03 00:00:00.0000, -4.813759400082621E+08, 1.521919764709387E+08, -3.997990380412659E+07,
2461505.500000000, A.D. 2027-Apr-10 00:00:00.0000, -4.841412591379681E+08, 1.431233106290994E+08, -3.889643312700170E+07,
2461512.500000000, A.D. 2027-Apr-17 00:00:00.0000, -4.867256770851377E+08, 1.340014061495677E+08, -3.779836607513537E+07,
2461519.500000000, A.D. 2027-Apr-24 00:00:00.0000, -4.891281171462371E+08, 1.248296378362920E+08, -3.668610701542604E+07,
2461526.500000000, A.D. 2027-May-01 00:00:00.0000, -4.913475590923318E+08, 1.156113995186811E+08, -3.556006541162622E+07,
2461533.500000000, A.D. 2027-May-08 00:00:00.0000, -4.933830383929717E+08, 1.063501036860845E+08, -3.442065582906544E+07,
2461540.500000000, A.D. 2027-May-15 00:00:00.0000, -4.952336462571596E+08, 9.704918270404080E+07, -3.326829773583587E+07,
2461547.500000000, A.D. 2027-May-22 00:00:00.0000, -4.968985320562550E+08, 8.771208902000795E+07, -3.210341516886328E+07,
2461554.500000000, A.D. 2027-May-29 00:00:00.0000, -4.983769047735213E+08, 7.834229289062731E+07, -3.092643669256439E+07,
2461561.500000000, A.D. 2027-Jun-05 00:00:00.0000, -4.996680325940989E+08, 6.894328076206613E+07, -2.973779547478725E+07,
2461568.500000000, A.D. 2027-Jun-12 00:00:00.0000, -5.007712426420352E+08, 5.951855473371462E+07, -2.853792926024275E+07,
2461575.500000000, A.D. 2027-Jun-19 00:00:00.0000, -5.016859211960622E+08, 5.007163216907329E+07, -2.732728028739225E+07,
2461582.500000000, A.D. 2027-Jun-26 00:00:00.0000, -5.024115141053098E+08, 4.060604519210864E+07, -2.610629519561309E+07,
2461589.500000000, A.D. 2027-Jul-03 00:00:00.0000, -5.029475272728506E+08, 3.112534007700679E+07, -2.487542493375509E+07,
2461596.500000000, A.D. 2027-Jul-10 00:00:00.0000, -5.032935271700412E+08, 2.163307653947304E+07, -2.363512467237289E+07,
2461603.500000000, A.D. 2027-Jul-17 00:00:00.0000, -5.034491413451446E+08, 1.213282689002613E+07, -2.238585372576160E+07,
2461610.500000000, A.D. 2027-Jul-24 00:00:00.0000, -5.034140587696810E+08, 2.628174985782444E+06, -2.112807550291425E+07,
2461617.500000000, A.D. 2027-Jul-31 00:00:00.0000, -5.031880296108874E+08, -6.877284784439680E+06, -1.986225750554127E+07,
2461624.500000000, A.D. 2027-Aug-07 00:00:00.0000, -5.027708646306485E+08, -1.637994733076325E+07, -1.858887126031669E+07,
2461631.500000000, A.D. 2027-Aug-14 00:00:00.0000, -5.021624365120419E+08, -2.587619576307628E+07, -1.730839199485573E+07,
2461638.500000000, A.D. 2027-Aug-21 00:00:00.0000, -5.013626824964911E+08, -3.536240272702405E+07, -1.602129838911108E+07,
2461645.500000000, A.D. 2027-Aug-28 00:00:00.0000, -5.003716049010661E+08, -4.483493297145092E+07, -1.472807261844115E+07,
2461652.500000000, A.D. 2027-Sep-04 00:00:00.0000, -4.991892706954334E+08, -5.429014464446366E+07, -1.342920037524189E+07,
2461659.500000000, A.D. 2027-Sep-11 00:00:00.0000, -4.978158115318487E+08, -6.372438997997920E+07, -1.212517079512074E+07,
2461666.500000000, A.D. 2027-Sep-18 00:00:00.0000, -4.962514240938223E+08, -7.313401602571872E+07, -1.081647635306180E+07,
2461673.500000000, A.D. 2027-Sep-25 00:00:00.0000, -4.944963705334906E+08, -8.251536549097961E+07, -9.503612757041983E+06,
2461680.500000000, A.D. 2027-Oct-02 00:00:00.0000, -4.925509789216800E+08, -9.186477768762261E+07, -8.187078843896616E+06,
2461687.500000000, A.D. 2027-Oct-09 00:00:00.0000, -4.904156436879278E+08, -1.011785895699386E+08, -6.867376480115727E+06,
2461694.500000000, A.D. 2027-Oct-16 00:00:00.0000, -4.880908259877142E+08, -1.104531369290913E+08, -5.545010478117108E+06,
2461701.500000000, A.D. 2027-Oct-23 00:00:00.0000, -4.855770537374498E+08, -1.196847557479690E+08, -4.220488552476682E+06,
2461708.500000000, A.D. 2027-Oct-30 00:00:00.0000, -4.828749209423816E+08, -1.288697831058599E+08, -2.894321300636314E+06,
2461715.500000000, A.D. 2027-Nov-06 00:00:00.0000, -4.799850874798473E+08, -1.380045565046033E+08, -1.567022009127907E+06,
2461722.500000000, A.D. 2027-Nov-13 00:00:00.0000, -4.769082813223465E+08, -1.470854136929518E+08, -2.391062728676721E+05,
2461729.500000000, A.D. 2027-Nov-20 00:00:00.0000, -4.736453002986732E+08, -1.561086951756801E+08, 1.088908127759434E+06,
2461736.500000000, A.D. 2027-Nov-27 00:00:00.0000, -4.701970117750458E+08, -1.650707464426624E+08, 2.416501186201341E+06,
2461743.500000000, A.D. 2027-Dec-04 00:00:00.0000, -4.665643522777250E+08, -1.739679190037173E+08, 3.743150726002909E+06,
2461750.500000000, A.D. 2027-Dec-11 00:00:00.0000, -4.627483276057749E+08, -1.827965711939158E+08, 5.068332525893822E+06,
2461757.500000000, A.D. 2027-Dec-18 00:00:00.0000, -4.587500131581025E+08, -1.915530690895033E+08, 6.391520460859984E+06,
2461764.500000000, A.D. 2027-Dec-25 00:00:00.0000, -4.545705543223273E+08, -2.002337875372472E+08, 7.712186645236298E+06,
2461771.500000000, A.D. 2028-Jan-01 00:00:00.0000, -4.502111668833750E+08, -2.088351112829261E+08, 9.029801575439900E+06,
$$EOE